NORAD_CAT_ID,OBJECT_NAME,OBJECT_TYPE,EPOCH,MEAN_MOTION,ECCENTRICITY,INCLINATION,RA_OF_ASC_NODE,ARG_OF_PERICENTER,MEAN_ANOMALY,BSTAR,MEAN_MOTION_DOT,MEAN_MOTION_DDOT,TLE_LINE0,TLE_LINE1,TLE_LINE2,SEMIMAJOR_AXIS,PERIOD,APOGEE,PERIGEE,DECAYED
53571.0,STARLINK-4584,PAYLOAD,2022-10-24 06:00:00,15.61579194,0.0001252999999999,53.2163,190.9599,71.2203,118.3441,-0.01449,-0.01145487,0.0,0 STARLINK-4584,1 53571U 22101AW  22297.25001157 -.01145487  00000-0 -14490-1 0  9991,2 53571  53.2163 190.9599 0001253  71.2203 118.3441 15.61579194 10327,6761.232,92.214,383.944,382.25,0.0
53571.0,STARLINK-4584,PAYLOAD,2022-10-24 14:00:01,15.60755853,0.0001136,53.2173,189.3365,87.0737,176.9538,-0.014766,-0.01131876,0.0,0 STARLINK-4584,1 53571U 22101AW  22297.58334491 -.01131876  00000-0 -14766-1 0  9990,2 53571  53.2173 189.3365 0001136  87.0737 176.9538 15.60755853  1300,6763.61,92.263,386.24300000000005,384.706,0.0
53571.0,STARLINK-4584,PAYLOAD,2022-10-24 22:00:00,15.599471,0.0001049,53.2167,187.7204,100.1938,237.3087,-0.015332,-0.01138385,0.0,0 STARLINK-4584,1 53571U 22101AW  22297.91667824 -.01138385  00000-0 -15332-1 0  9998,2 53571  53.2167 187.7204 0001049 100.1938 237.3087 15.59947100  1307,6765.946999999999,92.311,388.522,387.102,0.0
53571.0,STARLINK-4584,PAYLOAD,2022-10-25 06:00:00,15.59138392,0.0001028,53.2164,186.1047,72.7825,337.2183,-0.015913,-0.01144722,0.0,0 STARLINK-4584,1 53571U 22101AW  22298.25001157 -.01144722  00000-0 -15913-1 0  9994,2 53571  53.2164 186.1047 0001028  72.7825 337.2183 15.59138392 10489,6768.286,92.359,390.847,389.456,0.0
53571.0,STARLINK-4584,PAYLOAD,2022-10-25 14:00:01,15.58315959,0.0001167999999999,53.2173,184.4875,77.686,43.844,-0.016248,-0.01133904,0.0,0 STARLINK-4584,1 53571U 22101AW  22298.58334491 -.01133904  00000-0 -16248-1 0  9992,2 53571  53.2173 184.4875 0001168  77.6860  43.8440 15.58315959  1309,6770.668000000002,92.407,393.323,391.742,0.0
53571.0,STARLINK-4584,PAYLOAD,2022-10-25 22:00:01,15.57509734,0.0001284,53.2168,182.8774,96.17,95.9648,-0.016899,-0.01142929,0.0,0 STARLINK-4584,1 53571U 22101AW  22298.91668981 -.01142929  00000-0 -16899-1 0  9992,2 53571  53.2168 182.8774 0001284  96.1700  95.9648 15.57509734  1304,6773.004,92.455,395.739,393.999,0.0
53571.0,STARLINK-4584,PAYLOAD,2022-10-26 06:00:00,15.566959,0.0001137,53.2166,181.2673,74.3672,187.2702,-0.017432,-0.01143298,0.0,0 STARLINK-4584,1 53571U 22101AW  22299.25001157 -.01143298  00000-0 -17432-1 0  9990,2 53571  53.2166 181.2673 0001137  74.3672 187.2702 15.56695900 10638,6775.364000000001,92.504,398.0,396.459,0.0
53571.0,STARLINK-4584,PAYLOAD,2022-10-26 14:00:01,15.55872037,0.0001051,53.2174,179.6562,79.979,250.254,-0.017723,-0.01128613,0.0,0 STARLINK-4584,1 53571U 22101AW  22299.58334491 -.01128613  00000-0 -17723-1 0  9993,2 53571  53.2174 179.6562 0001051  79.9790 250.2540 15.55872037  1304,6777.755999999999,92.553,400.333,398.909,0.0
53571.0,STARLINK-4584,PAYLOAD,2022-10-26 22:00:00,15.55061375,0.000112,53.2176,178.0516,68.7656,329.0765,-0.018337,-0.01132639,0.0,0 STARLINK-4584,1 53571U 22101AW  22299.91667824 -.01132639  00000-0 -18337-1 0  9994,2 53571  53.2176 178.0516 0001120  68.7656 329.0765 15.55061375  1301,6780.111,92.601,402.736,401.217,0.0
53571.0,STARLINK-4584,PAYLOAD,2022-10-27 06:00:00,15.54268642,0.0001220999999999,53.2159,176.4482,70.4534,34.011,-0.0193729999999999,-0.01159222,0.0,0 STARLINK-4584,1 53571U 22101AW  22300.25001157 -.01159222  00000-0 -19373-1 0  9993,2 53571  53.2159 176.4482 0001221  70.4534  34.0110 15.54268642 10798,6782.416,92.648,405.11,403.453,0.0
53571.0,STARLINK-4584,PAYLOAD,2022-10-27 14:00:01,15.53433444,0.0001266,53.2173,174.8426,81.5366,88.6615,-0.019461,-0.01132201,0.0,0 STARLINK-4584,1 53571U 22101AW  22300.58335648 -.01132201  00000-0 -19461-1 0  9990,2 53571  53.2173 174.8426 0001266  81.5366  88.6615 15.53433444  1304,6784.847,92.698,407.571,405.853,0.0
53571.0,STARLINK-4584,PAYLOAD,2022-10-27 22:00:00,15.52617648,0.0001284,53.2173,173.24400000000003,81.3207,153.4903,-0.0199729999999999,-0.01128322,0.0,0 STARLINK-4584,1 53571U 22101AW  22300.91667824 -.01128322  00000-0 -19973-1 0  9998,2 53571  53.2173 173.2440 0001284  81.3207 153.4903 15.52617648  1305,6787.224,92.747,409.96,408.217,0.0
53571.0,STARLINK-4584,PAYLOAD,2022-10-28 14:00:01,15.5092431,0.0001141,53.2173,170.0466,80.1678,281.1452,-0.018162,-0.00978708,0.0,0 STARLINK-4584,1 53571U 22101AW  22301.58335648 -.00978708  00000-0 -18162-1 0  9997,2 53571  53.2173 170.0466 0001141  80.1678 281.1452 15.50924310  1302,6792.163000000001,92.848,414.80300000000005,413.253,0.0
53571.0,STARLINK-4584,PAYLOAD,2022-10-28 22:00:01,15.50119255,0.0001127,53.2168,168.4544,86.0976,336.9535,-0.006139,-0.0033707999999999,0.0,0 STARLINK-4584,1 53571U 22101AW  22301.91668981 -.00337080  00000-0 -61390-2 0  9997,2 53571  53.2168 168.4544 0001127  86.0976 336.9535 15.50119255 11052,6794.515,92.896,417.145,415.614,0.0
53571.0,STARLINK-4584,PAYLOAD,2022-10-29 08:00:01,15.49890552,0.0001127,53.2175,166.4612,100.4805,128.7763,-0.00016612,-9.869e-05,0.0,0 STARLINK-4584,1 53571U 22101AW  22302.33334491 -.00009869  00000-0 -16612-3 0  9999,2 53571  53.2175 166.4612 0001127 100.4805 128.7763 15.49890552 11117,6795.183000000001,92.91,417.814,416.282,0.0
53571.0,STARLINK-4584,PAYLOAD,2022-10-29 12:00:00,15.4999527,0.0001105,53.2174,165.6639,100.8257,338.8706,-0.0059753,-0.00327074,0.0,0 STARLINK-4584,1 53571U 22101AW  22302.50001157 -.00327074  00000-0 -59753-2 0  9991,2 53571  53.2174 165.6639 0001105 100.8257 338.8706 15.49995270  1301,6794.877,92.904,417.49300000000005,415.991,0.0
53571.0,STARLINK-4584,PAYLOAD,2022-10-29 22:00:01,15.49841747,0.000123,53.2171,163.6751,96.1438,149.6784,-0.023153,-0.01196081,0.0,0 STARLINK-4584,1 53571U 22101AW  22302.91668981 -.01196081  00000-0 -23153-1 0  9997,2 53571  53.2171 163.6751 0001230  96.1438 149.6784 15.49841747  1301,6795.326,92.913,418.026,416.355,0.0
53571.0,STARLINK-4584,PAYLOAD,2022-10-30 00:00:00,15.4960026,0.0001062,53.2174,163.2769,96.5447,254.4027,-0.022227,-0.01126605,0.0,0 STARLINK-4584,1 53571U 22101AW  22303.00001157 -.01126605  00000-0 -22227-1 0  9990,2 53571  53.2174 163.2769 0001062  96.5447 254.4027 15.49600260 11215,6796.031999999997,92.927,418.61800000000005,417.175,0.0
53571.0,STARLINK-4584,PAYLOAD,2022-10-30 14:00:01,15.4817731,0.0001125,53.2169,160.4915,71.5846,293.8531,-0.023371,-0.01143082,0.0,0 STARLINK-4584,1 53571U 22101AW  22303.58334491 -.01143082  00000-0 -23371-1 0  9992,2 53571  53.2169 160.4915 0001125  71.5846 293.8531 15.48177310  1307,6800.195,93.013,422.825,421.295,0.0
53571.0,STARLINK-4584,PAYLOAD,2022-10-30 22:00:01,15.47372927,0.0001171,53.2172,158.9051,90.8542,333.0076,-0.024368,-0.01157387,0.0,0 STARLINK-4584,1 53571U 22101AW  22303.91668981 -.01157387  00000-0 -24368-1 0  9993,2 53571  53.2172 158.9051 0001171  90.8542 333.0076 15.47372927  1303,6802.552,93.061,425.213,423.62,0.0
53571.0,STARLINK-4584,PAYLOAD,2022-10-31 14:00:01,15.4574285,0.0001296,53.2167,155.7335,76.791,100.8029,-0.02565,-0.01151724,0.0,0 STARLINK-4584,1 53571U 22101AW  22304.58334491 -.01151724  00000-0 -25650-1 0  9997,2 53571  53.2167 155.7335 0001296  76.7910 100.8029 15.45742850  1309,6807.333000000001,93.159,430.08,428.316,0.0
53571.0,STARLINK-4584,PAYLOAD,2022-10-31 22:00:01,15.44932285,0.0001345,53.217,154.1529,97.1145,135.9725,-0.026505,-0.01156865,0.0,0 STARLINK-4584,1 53571U 22101AW  22304.91668981 -.01156865  00000-0 -26505-1 0  9999,2 53571  53.2170 154.1529 0001345  97.1145 135.9725 15.44932285 11511,6809.714,93.208,432.495,430.663,0.0
53571.0,STARLINK-4584,PAYLOAD,2022-11-01 14:00:01,15.43299854,0.0001139999999999,53.2168,150.9927,76.8489,264.1043,-0.0278019999999999,-0.01148375,0.0,0 STARLINK-4584,1 53571U 22101AW  22305.58334491 -.01148375  00000-0 -27802-1 0  9997,2 53571  53.2168 150.9927 0001140  76.8489 264.1043 15.43299854  1303,6814.515,93.307,437.157,435.603,0.0
53571.0,STARLINK-4584,PAYLOAD,2022-11-01 22:00:00,15.42472162,0.0001139,53.2171,149.4181,91.3281,302.1284,-0.028096,-0.01130103,0.0,0 STARLINK-4584,1 53571U 22101AW  22305.91667824 -.01130103  00000-0 -28096-1 0  9999,2 53571  53.2171 149.4181 0001139  91.3281 302.1284 15.42472162 11677,6816.953,93.357,439.594,438.041,0.0
53571.0,STARLINK-4584,PAYLOAD,2022-11-02 14:00:01,15.40853012,0.0001298,53.2177,146.2688,96.7952,38.7194,-0.029958,-0.01140309,0.0,0 STARLINK-4584,1 53571U 22101AW  22306.58334491 -.01140309  00000-0 -29958-1 0  9991,2 53571  53.2177 146.2688 0001298  96.7952  38.7194 15.40853012  1306,6821.727,93.455,444.478,442.707,0.0
53571.0,STARLINK-4584,PAYLOAD,2022-11-02 22:00:00,15.40038854,0.0001452,53.2176,144.7003,65.1934,119.8839,-0.030763,-0.01139714,0.0,0 STARLINK-4584,1 53571U 22101AW  22306.91667824 -.01139714  00000-0 -30763-1 0  9991,2 53571  53.2176 144.7003 0001452  65.1934 119.8839 15.40038854  1307,6824.132,93.504,446.987,445.006,0.0
53571.0,STARLINK-4584,PAYLOAD,2022-11-03 06:00:02,15.39231822,0.0001271,53.2172,143.1308,78.3037,155.4216,-0.031925,-0.01150493,0.0,0 STARLINK-4584,1 53571U 22101AW  22307.25002315 -.01150493  00000-0 -31925-1 0  9995,2 53571  53.2172 143.1308 0001271  78.3037 155.4216 15.39231822 11879,6826.517,93.553,449.249,447.514,0.0
53571.0,STARLINK-4584,PAYLOAD,2022-11-03 14:00:01,15.38428218,0.0001258,53.217,141.5639,79.3995,201.8638,-0.033139,-0.01161934,0.0,0 STARLINK-4584,1 53571U 22101AW  22307.58334491 -.01161934  00000-0 -33139-1 0  9995,2 53571  53.2170 141.5639 0001258  79.3995 201.8638 15.38428218  1302,6828.894,93.602,451.61800000000005,449.9,0.0
53571.0,STARLINK-4584,PAYLOAD,2022-11-04 00:00:00,15.37392196,0.0001256,53.2174,139.6095,60.507,8.8996,-0.033448,-0.01136048,0.0,0 STARLINK-4584,1 53571U 22101AW  22308.00001157 -.01136048  00000-0 -33448-1 0  9994,2 53571  53.2174 139.6095 0001256  60.5070   8.8996 15.37392196  1300,6831.9609999999975,93.665,454.684,452.968,0.0
